[Satellite]
VERSION=1.1
NAME=CZ-6A DEB
NICKNAME=CZ-6A DEB
TLE1=1 54636U 22151PN  22341.96237434  .00116460  00000+0  33514-1 0  9999
TLE2=2 54636  98.5557 346.0072 0122908 229.6103 129.4306 14.39695167  2471
STATUS=0
